SL-8 R/B                
1 11574U 79089B   26064.51458021  .00000375  00000+0  12143-3 0  9993
2 11574  74.0672  98.7734 0017140 271.8665  88.0529 14.42347568435505
SL-14 R/B               
1 11672U 80005B   26064.70081558  .00000788  00000+0  77161-4 0  9990
2 11672  82.5152 311.0199 0015836 171.2288 188.9211 14.90925161475899
SL-8 R/B                
1 12139U 81003B   26064.69574549  .00021368  00000+0  55036-3 0  9996
2 12139  82.9384 293.7178 0262608 192.5103 166.9532 15.10785815314072
SL-3 R/B                
1 12465U 81046B   26064.89081969  .00013214  00000+0  30830-3 0  9992
2 12465  81.2301 294.3065 0019893  35.1957 325.0594 15.41875930437841
SL-3 R/B                
1 12904U 81103B   26064.89177471  .00007085  00000+0  31483-3 0  9992
2 12904  81.1583 217.8869 0012483 300.2264  59.7731 15.21320394972651
SL-3 R/B                
1 13068U 82013B   26064.90143828  .00005625  00000+0  24385-3 0  9997
2 13068  81.1765 165.2093 0022414 190.0426 170.0362 15.21967747403778
SL-3 R/B                
1 13154U 82039B   26064.94612229  .00003205  00000+0  19364-3 0  9994
2 13154  81.1583 220.2777 0029824 336.6185  23.3681 15.10053517381076
SL-3 R/B                
1 13403U 82079B   26064.92628709  .00007999  00000+0  31932-3 0  9992
2 13403  81.1477 197.5193 0024884 177.2554 182.8821 15.24728670377125
SL-14 R/B               
1 13553U 82092B   26064.75104703  .00000674  00000+0  72966-4 0  9993
2 13553  82.5701 145.0831 0019246 317.4536 164.0302 14.86661956328343
SL-3 R/B                
1 13819U 83010B   26064.87825764  .00017642  00000+0  35616-3 0  9992
2 13819  81.1067   6.9187 0018294  63.3740 296.9375 15.46190369357353
SL-3 R/B                
1 14208U 83075B   26064.97946573  .00012165  00000+0  32228-3 0  9990
2 14208  97.6138  69.4161 0019835 240.3672 119.5597 15.38308154329580
COSMOS 1536             
1 14699U 84013A   26064.58285331  .00007429  00000+0  30694-3 0  9994
2 14699  82.5433 111.9331 0012741 299.5867  60.4100 15.23762648271999
SL-14 R/B               
1 14820U 84027B   26064.92224763  .00000595  00000+0  65242-4 0  9990
2 14820  82.5382 248.5471 0017681 350.7950   9.2939 14.85971399247076
SL-8 R/B                
1 15483U 85006B   26064.90890686  .00000189  00000+0  71338-4 0  9997
2 15483  74.0433 268.1062 0018597 186.8131 276.9397 14.37779262153489
SL-12 R/B(2)            
1 15772U 85042D   26064.55432426  .00000133  00000+0  81141-4 0  9995
2 15772  71.1063  96.4665 0033429 134.9173 340.1837 14.21981266113806
SL-14 R/B               
1 15945U 85069B   26064.97548905  .00000685  00000+0  74604-4 0  9990
2 15945  82.5277  28.4250 0018141 200.2515 159.7984 14.86427584172280
SL-16 R/B               
1 16182U 85097B   26064.68944377 -.00000091  00000+0 -21638-4 0  9998
2 16182  71.0035 148.9756 0009962 264.5817 208.5938 14.16599681 86666
