[{"OBJECT_NAME":"SL-8 R/B","OBJECT_ID":"1979-089B","EPOCH":"2026-03-05T12:20:59.730144","MEAN_MOTION":14.42347568,"ECCENTRICITY":0.001714,"INCLINATION":74.0672,"RA_OF_ASC_NODE":98.7734,"ARG_OF_PERICENTER":271.8665,"MEAN_ANOMALY":88.0529,"EPHEMERIS_TYPE":0,"CLASSIFICATION_TYPE":"U","NORAD_CAT_ID":11574,"ELEMENT_SET_NO":999,"REV_AT_EPOCH":43550,"BSTAR":0.00012143,"MEAN_MOTION_DOT":3.75e-6,"MEAN_MOTION_DDOT":0},{"OBJECT_NAME":"SL-14 R/B","OBJECT_ID":"1980-005B","EPOCH":"2026-03-05T16:49:10.466112","MEAN_MOTION":14.90925161,"ECCENTRICITY":0.00158368,"INCLINATION":82.5152,"RA_OF_ASC_NODE":311.0199,"ARG_OF_PERICENTER":171.2288,"MEAN_ANOMALY":188.9211,"EPHEMERIS_TYPE":0,"CLASSIFICATION_TYPE":"U","NORAD_CAT_ID":11672,"ELEMENT_SET_NO":999,"REV_AT_EPOCH":47589,"BSTAR":7.7161224e-5,"MEAN_MOTION_DOT":7.88e-6,"MEAN_MOTION_DDOT":0},{"OBJECT_NAME":"SL-8 R/B","OBJECT_ID":"1981-003B","EPOCH":"2026-03-05T16:41:52.410336","MEAN_MOTION":15.10785815,"ECCENTRICITY":0.02626087,"INCLINATION":82.9384,"RA_OF_ASC_NODE":293.7178,"ARG_OF_PERICENTER":192.5103,"MEAN_ANOMALY":166.9532,"EPHEMERIS_TYPE":0,"CLASSIFICATION_TYPE":"U","NORAD_CAT_ID":12139,"ELEMENT_SET_NO":999,"REV_AT_EPOCH":31407,"BSTAR":0.000550363,"MEAN_MOTION_DOT":0.00021368,"MEAN_MOTION_DDOT":0},{"OBJECT_NAME":"SL-3 R/B","OBJECT_ID":"1981-046B","EPOCH":"2026-03-05T21:22:46.821216","MEAN_MOTION":15.4187593,"ECCENTRICITY":0.00198939,"INCLINATION":81.2301,"RA_OF_ASC_NODE":294.3065,"ARG_OF_PERICENTER":35.1957,"MEAN_ANOMALY":325.0594,"EPHEMERIS_TYPE":0,"CLASSIFICATION_TYPE":"U","NORAD_CAT_ID":12465,"ELEMENT_SET_NO":999,"REV_AT_EPOCH":43784,"BSTAR":0.00030830464,"MEAN_MOTION_DOT":0.00013214,"MEAN_MOTION_DDOT":0},{"OBJECT_NAME":"SL-3 R/B","OBJECT_ID":"1981-103B","EPOCH":"2026-03-05T21:24:09.334944","MEAN_MOTION":15.21320394,"ECCENTRICITY":0.00124834,"INCLINATION":81.1583,"RA_OF_ASC_NODE":217.8869,"ARG_OF_PERICENTER":300.2264,"MEAN_ANOMALY":59.7731,"EPHEMERIS_TYPE":0,"CLASSIFICATION_TYPE":"U","NORAD_CAT_ID":12904,"ELEMENT_SET_NO":999,"REV_AT_EPOCH":97265,"BSTAR":0.00031483274,"MEAN_MOTION_DOT":7.085e-5,"MEAN_MOTION_DDOT":0},{"OBJECT_NAME":"SL-3 R/B","OBJECT_ID":"1982-013B","EPOCH":"2026-03-05T21:38:04.267392","MEAN_MOTION":15.21967747,"ECCENTRICITY":0.00224149,"INCLINATION":81.1765,"RA_OF_ASC_NODE":165.2093,"ARG_OF_PERICENTER":190.0426,"MEAN_ANOMALY":170.0362,"EPHEMERIS_TYPE":0,"CLASSIFICATION_TYPE":"U","NORAD_CAT_ID":13068,"ELEMENT_SET_NO":999,"REV_AT_EPOCH":40377,"BSTAR":0.00024384589,"MEAN_MOTION_DOT":5.625e-5,"MEAN_MOTION_DDOT":0},{"OBJECT_NAME":"SL-3 R/B","OBJECT_ID":"1982-039B","EPOCH":"2026-03-05T22:42:24.965856","MEAN_MOTION":15.10053517,"ECCENTRICITY":0.00298245,"INCLINATION":81.1583,"RA_OF_ASC_NODE":220.2777,"ARG_OF_PERICENTER":336.6185,"MEAN_ANOMALY":23.3681,"EPHEMERIS_TYPE":0,"CLASSIFICATION_TYPE":"U","NORAD_CAT_ID":13154,"ELEMENT_SET_NO":999,"REV_AT_EPOCH":38107,"BSTAR":0.00019364217,"MEAN_MOTION_DOT":3.205e-5,"MEAN_MOTION_DDOT":0},{"OBJECT_NAME":"SL-3 R/B","OBJECT_ID":"1982-079B","EPOCH":"2026-03-05T22:13:51.204576","MEAN_MOTION":15.2472867,"ECCENTRICITY":0.0024884,"INCLINATION":81.1477,"RA_OF_ASC_NODE":197.5193,"ARG_OF_PERICENTER":177.2554,"MEAN_ANOMALY":182.8821,"EPHEMERIS_TYPE":0,"CLASSIFICATION_TYPE":"U","NORAD_CAT_ID":13403,"ELEMENT_SET_NO":999,"REV_AT_EPOCH":37712,"BSTAR":0.00031932316,"MEAN_MOTION_DOT":7.999e-5,"MEAN_MOTION_DDOT":0},{"OBJECT_NAME":"SL-14 R/B","OBJECT_ID":"1982-092B","EPOCH":"2026-03-05T18:01:30.463392","MEAN_MOTION":14.86661956,"ECCENTRICITY":0.0019246,"INCLINATION":82.5701,"RA_OF_ASC_NODE":145.0831,"ARG_OF_PERICENTER":317.4536,"MEAN_ANOMALY":164.0302,"EPHEMERIS_TYPE":0,"CLASSIFICATION_TYPE":"U","NORAD_CAT_ID":13553,"ELEMENT_SET_NO":999,"REV_AT_EPOCH":32834,"BSTAR":7.2966439e-5,"MEAN_MOTION_DOT":6.74e-6,"MEAN_MOTION_DDOT":0},{"OBJECT_NAME":"SL-3 R/B","OBJECT_ID":"1983-010B","EPOCH":"2026-03-05T21:04:41.460096","MEAN_MOTION":15.46190369,"ECCENTRICITY":0.00182942,"INCLINATION":81.1067,"RA_OF_ASC_NODE":6.9187,"ARG_OF_PERICENTER":63.374,"MEAN_ANOMALY":296.9375,"EPHEMERIS_TYPE":0,"CLASSIFICATION_TYPE":"U","NORAD_CAT_ID":13819,"ELEMENT_SET_NO":999,"REV_AT_EPOCH":35735,"BSTAR":0.0003561601,"MEAN_MOTION_DOT":0.00017642,"MEAN_MOTION_DDOT":0},{"OBJECT_NAME":"SL-3 R/B","OBJECT_ID":"1983-075B","EPOCH":"2026-03-05T23:30:25.839072","MEAN_MOTION":15.38308154,"ECCENTRICITY":0.00198354,"INCLINATION":97.6138,"RA_OF_ASC_NODE":69.4161,"ARG_OF_PERICENTER":240.3672,"MEAN_ANOMALY":119.5597,"EPHEMERIS_TYPE":0,"CLASSIFICATION_TYPE":"U","NORAD_CAT_ID":14208,"ELEMENT_SET_NO":999,"REV_AT_EPOCH":32958,"BSTAR":0.00032228194,"MEAN_MOTION_DOT":0.00012165,"MEAN_MOTION_DDOT":0},{"OBJECT_NAME":"COSMOS 1536","OBJECT_ID":"1984-013A","EPOCH":"2026-03-05T13:59:18.525984","MEAN_MOTION":15.23762648,"ECCENTRICITY":0.0012741,"INCLINATION":82.5433,"RA_OF_ASC_NODE":111.9331,"ARG_OF_PERICENTER":299.5867,"MEAN_ANOMALY":60.41,"EPHEMERIS_TYPE":0,"CLASSIFICATION_TYPE":"U","NORAD_CAT_ID":14699,"ELEMENT_SET_NO":999,"REV_AT_EPOCH":27199,"BSTAR":0.00030694,"MEAN_MOTION_DOT":7.429e-5,"MEAN_MOTION_DDOT":0},{"OBJECT_NAME":"SL-14 R/B","OBJECT_ID":"1984-027B","EPOCH":"2026-03-05T22:08:02.195232","MEAN_MOTION":14.85971399,"ECCENTRICITY":0.00176811,"INCLINATION":82.5382,"RA_OF_ASC_NODE":248.5471,"ARG_OF_PERICENTER":350.795,"MEAN_ANOMALY":9.2939,"EPHEMERIS_TYPE":0,"CLASSIFICATION_TYPE":"U","NORAD_CAT_ID":14820,"ELEMENT_SET_NO":999,"REV_AT_EPOCH":24707,"BSTAR":6.5241719e-5,"MEAN_MOTION_DOT":5.95e-6,"MEAN_MOTION_DDOT":0},{"OBJECT_NAME":"SL-8 R/B","OBJECT_ID":"1985-006B","EPOCH":"2026-03-05T21:48:49.552704","MEAN_MOTION":14.37779262,"ECCENTRICITY":0.00185975,"INCLINATION":74.0433,"RA_OF_ASC_NODE":268.1062,"ARG_OF_PERICENTER":186.8131,"MEAN_ANOMALY":276.9397,"EPHEMERIS_TYPE":0,"CLASSIFICATION_TYPE":"U","NORAD_CAT_ID":15483,"ELEMENT_SET_NO":999,"REV_AT_EPOCH":15348,"BSTAR":7.1338112e-5,"MEAN_MOTION_DOT":1.89e-6,"MEAN_MOTION_DDOT":0},{"OBJECT_NAME":"SL-12 R/B(2)","OBJECT_ID":"1985-042D","EPOCH":"2026-03-05T13:18:13.616064","MEAN_MOTION":14.21981266,"ECCENTRICITY":0.0033429,"INCLINATION":71.1063,"RA_OF_ASC_NODE":96.4665,"ARG_OF_PERICENTER":134.9173,"MEAN_ANOMALY":340.1837,"EPHEMERIS_TYPE":0,"CLASSIFICATION_TYPE":"U","NORAD_CAT_ID":15772,"ELEMENT_SET_NO":999,"REV_AT_EPOCH":11380,"BSTAR":8.1141e-5,"MEAN_MOTION_DOT":1.33e-6,"MEAN_MOTION_DDOT":0},{"OBJECT_NAME":"SL-14 R/B","OBJECT_ID":"1985-069B","EPOCH":"2026-03-05T23:24:42.253920","MEAN_MOTION":14.86427584,"ECCENTRICITY":0.00181411,"INCLINATION":82.5277,"RA_OF_ASC_NODE":28.425,"ARG_OF_PERICENTER":200.2515,"MEAN_ANOMALY":159.7984,"EPHEMERIS_TYPE":0,"CLASSIFICATION_TYPE":"U","NORAD_CAT_ID":15945,"ELEMENT_SET_NO":999,"REV_AT_EPOCH":17228,"BSTAR":7.4604013e-5,"MEAN_MOTION_DOT":6.85e-6,"MEAN_MOTION_DDOT":0},{"OBJECT_NAME":"SL-16 R/B","OBJECT_ID":"1985-097B","EPOCH":"2026-03-05T16:32:47.941728","MEAN_MOTION":14.16599681,"ECCENTRICITY":0.00099622,"INCLINATION":71.0035,"RA_OF_ASC_NODE":148.9756,"ARG_OF_PERICENTER":264.5817,"MEAN_ANOMALY":208.5938,"EPHEMERIS_TYPE":0,"CLASSIFICATION_TYPE":"U","NORAD_CAT_ID":16182,"ELEMENT_SET_NO":999,"REV_AT_EPOCH":8666,"BSTAR":-2.1637527e-5,"MEAN_MOTION_DOT":-9.1e-7,"MEAN_MOTION_DDOT":0}]
